IRIDIUM 7               
1 24793U 97020B   25227.54826345  .00000334  00000+0  10819-3 0  9999
2 24793  86.4020 152.0619 0001927  82.4209 277.7207 14.35975868480410
IRIDIUM 5               
1 24795U 97020D   25227.89799340  .00002621  00000+0  21325-3 0  9998
2 24795  86.3851  56.1713 0105630 284.3054  74.6465 14.94765598494382
IRIDIUM 4               
1 24796U 97020E   25227.28556974  .00000339  00000+0  10810-3 0  9997
2 24796  86.4014 149.0134 0002160  82.2982 277.8461 14.36876457480957
IRIDIUM 914             
1 24836U 97030A   25227.88720262  .00000401  00000+0  11880-3 0  9990
2 24836  86.3999 157.1788 0003293  59.9314 300.2211 14.40915263615729
IRIDIUM 16              
1 24841U 97030F   25227.93670853  .00000339  00000+0  10413-3 0  9993
2 24841  86.4088 180.1915 0001429 155.3506 204.7761 14.38750471475598
IRIDIUM 911             
1 24842U 97030G   25227.90615171  .00000527  00000+0  13725-3 0  9991
2 24842  86.4514 178.9107 0011864 257.1396 102.8482 14.47696001483723
IRIDIUM 17              
1 24870U 97034B   25227.96068664  .00000393  00000+0  12377-3 0  9994
2 24870  86.3964 209.6189 0002798 124.9368 235.2093 14.37867749472174
IRIDIUM 920             
1 24871U 97034C   25227.91931669  .00000420  00000+0  12307-3 0  9998
2 24871  86.4018 188.7474 0009467 239.4262 120.6005 14.41575702475189
